[{"OBJECT_NAME":"STARLINK-32238","OBJECT_ID":"2024-193A","EPOCH":"2026-03-09T11:48:06.637536","MEAN_MOTION":15.30192435,"ECCENTRICITY":0.00010347,"INCLINATION":53.1598,"RA_OF_ASC_NODE":92.1191,"ARG_OF_PERICENTER":83.4153,"MEAN_ANOMALY":276.6966,"EPHEMERIS_TYPE":0,"CLASSIFICATION_TYPE":"U","NORAD_CAT_ID":61661,"ELEMENT_SET_NO":999,"REV_AT_EPOCH":7649,"BSTAR":2.3049768e-5,"MEAN_MOTION_DOT":3.24e-6,"MEAN_MOTION_DDOT":0},{"OBJECT_NAME":"AIST-2 (RS43)","OBJECT_ID":"2013-015D","EPOCH":"2026-03-09T22:52:25.813056","MEAN_MOTION":15.25079544,"ECCENTRICITY":0.00239979,"INCLINATION":64.8687,"RA_OF_ASC_NODE":221.5348,"ARG_OF_PERICENTER":248.8384,"MEAN_ANOMALY":111.0181,"EPHEMERIS_TYPE":0,"CLASSIFICATION_TYPE":"U","NORAD_CAT_ID":39133,"ELEMENT_SET_NO":999,"REV_AT_EPOCH":70876,"BSTAR":0.00037899099,"MEAN_MOTION_DOT":9.402e-5,"MEAN_MOTION_DDOT":0}]
